36P/Whipple,e,9.9524,181.8429,200.9469,4.135426,0.1171989,0.26907772,82.9231,05/10.0/2022,2000,g  8.5,6.0
# From MPEC 2021-F20
37P/Forbes,e,8.9552,314.5650,330.1195,3.461008,0.1530736,0.53343724,224.5413,05/10.0/2022,2000,g 13.8,4.0
# From MPEC 2018-S50
38P/Stephan-Oterma,e,18.3750,77.9350,359.4980,11.23568,0.0261701,0.85918453,33.3846,05/10.0/2022,2000,g  3.5,12.0
# From MPEC 2022-A21
39P/Oterma,e,1.5505,298.7038,97.8174,7.344584,0.0495169,0.22149043,340.4244,05/10.0/2022,2000,g  7.0,6.0
# From MPC100283
40P/Vaisala,e,11.4689,133.7742,47.3838,4.953765,0.0893925,0.62982401,244.9604,05/10.0/2022,2000,g  5.5,12.0
# From MPC105240
41P/Tuttle-Giacobini-Kresak,e,9.2208,140.9891,62.2182,3.088237,0.1816093,0.65997070,337.0419,05/10.0/2022,2000,g 10.0,16.0
# From MPC 94283
42P/Neujmin,e,3.9915,150.1748,147.2350,4.873310,0.0916153,0.58502168,236.7812,05/10.0/2022,2000,g 13.0,6.0
# From MPEC 2022-C56
43P/Wolf-Harrington,e,9.3336,244.0742,224.1078,4.318304,0.1098333,0.43531241,229.8875,05/10.0/2022,2000,g  8.0,6.0
# From MPEC 2021-TD0
44P/Reinmuth,e,5.8959,286.4658,58.0836,3.692563,0.1389032,0.42785537,2.3253,05/10.0/2022,2000,g  8.3,6.0
# From MPC xxxxx
45P/Honda-Mrkos-Pajdusakova,e,4.3227,87.7036,327.9099,3.053672,0.1847015,0.81753253,2.4649,05/10.0/2022,2000,g 13.5,8.0
# From MPEC 2021-O56
46P/Wirtanen,e,11.7465,82.1576,356.3287,3.091850,0.1812911,0.65848311,225.7131,05/10.0/2022,2000,g 14.0,6.0
# From MPEC 2022-HC2
47P/Ashbrook-Jackson,e,13.0413,356.9215,357.6889,4.123057,0.1177267,0.31862812,210.9703,05/10.0/2022,2000,g  1.0,11.2
# From MPEC 2021-F20
48P/Johnson,e,12.2033,110.1126,216.7015,3.501027,0.1504565,0.42735029,205.4847,05/10.0/2022,2000,g 12.4,4.0
# From MPEC 2021-F20
49P/Arend-Rigaux,e,19.0474,118.7950,332.9239,3.569700,0.1461357,0.59832316,204.0333,05/10.0/2022,2000,g 13.4,4.0
# From MPEC 2015-S97
50P/Arend,e,19.1006,355.1786,49.3193,4.088145,0.1192380,0.52936489,272.4800,05/10.0/2022,2000,g  9.5,6.0
# From NK 3014
51P-A/Harrington,e,5.4260,83.6754,269.2656,3.708335,0.1380180,0.54358097,339.7165,05/10.0/2022,2000,g 10.0,8.0
# From MPEC 2015-L08
51P-D/Harrington,e,5.4275,83.6644,269.2551,3.707379,0.1380714,0.54351551,340.0065,05/10.0/2022,2000,g 16.0,8.0
# From MPEC 2022-J42
52P/Harrington-Abell,e,10.2315,336.8378,139.5839,3.864668,0.1297286,0.54016239,28.1279,05/10.0/2022,2000,g 13.5,6.0
# From MPC100283
53P/Van Biesbroeck,e,6.6095,148.8108,134.5073,5.429836,0.0778976,0.55122094,171.4371,05/10.0/2022,2000,g  7.7,4.8
# From MPC 89011
54P/de Vico-Swift-NEAT,e,6.0647,358.8176,1.8258,3.790120,0.1335748,0.42633970,246.7793,05/10.0/2022,2000,g  9.0,4.0
# From MPC 31070
55P/Tempel-Tuttle,e,162.4719,235.4128,172.4826,10.35692,0.0295705,0.90570703,262.5166,05/10.0/2022,2000,g  9.0,4.0
# From MPC101100
56P/Slaughter-Burnham,e,8.1612,345.9952,43.9932,5.067576,0.0863980,0.50811832,183.0687,05/10.0/2022,2000,g  8.5,6.0
# From MPEC 2022-C56
57P/duToit-Neujmin-Delporte,e,2.8520,188.7685,115.2227,3.446501,0.1540410,0.50103153,31.5251,05/10.0/2022,2000,g 12.5,6.0
# From MPEC 2021-O56
58P/Jackson-Neujmin,e,13.1089,159.0745,200.5100,4.086767,0.1192983,0.66281954,84.9771,05/10.0/2022,2000,g 15.5,6.0
# From MPEC 2021-F20
59P/Kearns-Kwee,e,9.3419,312.8185,127.5046,4.484981,0.1037679,0.47559683,138.1405,05/10.0/2022,2000,g  7.0,6.0
# From MPEC 2021-F20
60P/Tsuchinshan,e,3.5826,267.4819,216.9881,3.525128,0.1489161,0.53381818,186.0197,05/10.0/2022,2000,g 11.5,6.0
# From MPEC 2015-Q71
61P/Shajn-Schaldach,e,5.9995,162.9682,221.7089,3.691515,0.1389623,0.42423015,336.8012,05/10.0/2022,2000,g  6.0,10.0
# From MPC109147
62P/Tsuchinshan,e,4.7372,68.8520,47.3301,3.363965,0.1597448,0.62606065,265.1616,05/10.0/2022,2000,g  8.0,10.0
# From MPC 84320
63P/Wild,e,19.7298,358.0191,169.0398,5.608999,0.0741952,0.64912610,246.9825,05/10.0/2022,2000,g 10.5,6.0
# From MPEC 2021-F20
64P/Swift-Gehrels,e,8.9491,299.9603,97.0966,4.452943,0.1048898,0.68838405,134.4897,05/10.0/2022,2000,g 13.4,4.0
# From MPEC 2022-HC2
65P/Gunn,e,9.1768,62.0008,213.9067,3.887571,0.1285839,0.24888271,214.2150,05/10.0/2022,2000,g  5.0,6.0
# From MPEC 2021-F20
66P/duToit,e,18.6414,21.7933,257.4525,6.069088,0.0659203,0.78630062,95.7391,05/10.0/2022,2000,g 15.0,4.0
# From MPEC 2022-J42
67P/Churyumov-Gerasimenko,e,3.8717,36.3314,22.1412,3.456270,0.1533884,0.64972993,28.9795,05/10.0/2022,2000,g 11.0,4.0
# From MPEC 2022-H04
68P/Klemola,e,11.1113,175.0472,153.2038,4.956743,0.0893119,0.63751815,81.5278,05/10.0/2022,2000,g 12.7,4.0
# From MPC114607
69P/Taylor,e,22.0386,104.8148,343.4020,3.885739,0.1286748,0.41344104,147.8272,05/10.0/2022,2000,g  9.5,12.0
# From MPEC 2022-J42
70P/Kojima,e,6.5978,119.2664,1.8206,3.678139,0.1397210,0.45382082,26.2543,05/10.0/2022,2000,g 11.0,6.0
# From MPEC 2022-HC2
71P/Clark,e,9.4376,59.3978,209.0637,3.139269,0.1771990,0.49391673,314.3194,05/10.0/2022,2000,g  9.8,6.0
# From MPC 89011
72P/Denning-Fujikawa,e,10.9475,26.6984,346.7114,4.309134,0.1101841,0.81862340,315.7176,05/10.0/2022,2000,g 17.5,10.0
# From MPEC 2022-J42
73P/Schwassmann-Wachmann,e,11.2277,69.6112,199.4863,3.092481,0.1812356,0.68537464,340.4643,05/10.0/2022,2000,g 11.5,6.0
# From MPC106348
73P-T/Schwassmann-Wachmann,e,11.2296,69.6142,199.4656,3.093955,0.1811061,0.68557412,340.2229,05/10.0/2022,2000,g 11.5,6.0
# From MPEC 2021-UA9
74P/Smirnova-Chernykh,e,6.0488,60.0646,129.7951,4.485895,0.1037362,0.11778366,148.9429,05/10.0/2022,2000,g  5.0,6.0
# From MPEC 2021-F20
76P/West-Kohoutek-Ikemura,e,30.4698,84.1073,359.9416,3.471411,0.1523860,0.53838833,141.2457,05/10.0/2022,2000,g 15.5,4.0
# From MPEC 2022-HC2
77P/Longmore,e,24.3184,14.7701,196.7770,3.623296,0.1429053,0.35188362,313.0911,05/10.0/2022,2000,g  7.0,8.0
# From MPEC 2021-O56
78P/Gehrels,e,6.2547,210.5150,192.6323,3.737816,0.1363883,0.46255063,154.4741,05/10.0/2022,2000,g  5.5,8.0
# From MPC 94675
79P/du Toit-Hartley,e,3.1481,280.5280,281.7806,2.943263,0.1951913,0.61893845,260.7483,05/10.0/2022,2000,g 16.0,4.0
# From MPEC 2014-P41
80P/Peters-Hartley,e,29.9226,259.8025,339.2466,4.024510,0.1220772,0.59865083,334.0140,05/10.0/2022,2000,g  9.0,4.0
# From MPEC 2022-H30
81P/Wild,e,3.2366,136.0989,41.6473,3.453137,0.1535972,0.53713999,326.2620,05/10.0/2022,2000,g  7.0,6.0
# From MPC133426
82P/Gehrels,e,1.1290,239.3137,226.4757,4.134134,0.1172539,0.12180325,166.0932,05/10.0/2022,2000,g 15.0,4.0
# From MPEC 2020-FB5
84P/Giclas,e,7.5507,108.1604,281.5941,3.549601,0.1473787,0.51594309,103.8955,05/10.0/2022,2000,g  9.5,8.0
# From MPEC 2022-J42
86P/Wild,e,15.4755,72.3561,179.4302,3.601118,0.1442275,0.37220013,13.1723,05/10.0/2022,2000,g 11.0,6.0
# From MPEC 2020-SI8
87P/Bus,e,2.7192,180.9345,26.6974,3.459789,0.1531545,0.39679668,110.6407,05/10.0/2022,2000,g  7.2,10.0
# From MPEC 2022-ED3
88P/Howell,e,4.3828,56.6770,235.9220,3.105554,0.1800925,0.56400196,106.3492,05/10.0/2022,2000,g 11.0,6.0
# From MPC100283
89P/Russell,e,12.0703,41.3561,250.3876,3.753798,0.1355182,0.40834609,266.9814,05/10.0/2022,2000,g 11.5,6.0
# From MPC107051
90P/Gehrels,e,9.6507,13.2050,29.0514,6.051444,0.0662088,0.51068193,118.1496,05/10.0/2022,2000,g  8.5,6.0
# From MPEC 2021-S45
91P/Russell,e,14.0826,247.4390,355.4232,3.903272,0.1278088,0.33286479,69.6813,05/10.0/2022,2000,g  7.5,6.0
# From MPEC 2014-J58
92P/Sanguin,e,19.5066,181.3622,163.7864,5.343472,0.0797937,0.66106405,209.1904,05/10.0/2022,2000,g 12.0,6.0
# From NK 2707
93P/Lovas,e,12.2035,339.6464,74.8109,4.381162,0.1074781,0.61317395,203.6922,05/10.0/2022,2000,g  9.0,4.0
# From MPEC 2021-Y10
94P/Russell,e,6.1881,70.8580,92.4441,3.507972,0.1500099,0.36516234,303.5676,05/10.0/2022,2000,g  9.0,6.0
# From MPC 75717
95P/Chiron,e,6.9228,209.2945,339.5778,13.70945,0.0194166,0.37642096,186.9941,05/10.0/2022,2000,g  6.5,2.0
# From MPEC 2017-T14
96P/Machholz,e,57.5086,93.9586,14.7495,3.029592,0.1869080,0.96157351,310.2641,05/10.0/2022,2000,g  9.0,4.0
# From MPEC 2022-C56
97P/Metcalf-Brewington,e,17.9521,184.0778,229.9708,4.759307,0.0949267,0.45995812,7.9216,05/10.0/2022,2000,g  5.5,6.0
# From MPEC 2021-W31
98P/Takamizawa,e,10.5603,114.6897,157.8344,3.795465,0.1332928,0.56225397,65.3466,05/10.0/2022,2000,g  9.0,8.0
# From MPEC 2022-J42
99P/Kowal,e,4.3397,28.1013,174.9278,6.105381,0.0653333,0.22918702,1.7908,05/10.0/2022,2000,g  4.5,6.0
# From MPEC 2022-J42
100P/Hartley,e,25.5654,37.6878,181.9758,3.432500,0.1549845,0.41220270,345.5924,05/10.0/2022,2000,g  9.0,8.0
# From MPEC 2022-ED3
101P/Chernykh,e,5.0519,116.2199,277.7260,5.806218,0.0704473,0.59624811,59.7497,05/10.0/2022,2000,g 10.0,4.8
# From MPEC 2022-C56
102P/Shoemaker,e,25.8845,339.3655,20.5965,3.814699,0.1322860,0.45718198,62.4981,05/10.0/2022,2000,g  6.5,8.0
# From MPEC 2018-HA5
103P/Hartley,e,13.6080,219.7431,181.2859,3.475518,0.1521160,0.69358611,280.8101,05/10.0/2022,2000,g  8.5,8.0
# From MPEC 2022-J42
104P/Kowal,e,5.7016,207.2090,227.2524,3.207831,0.1715485,0.66548640,20.3073,05/10.0/2022,2000,g 16.0,4.0
# From MPC109147
105P/Singer Brewster,e,9.1688,192.4005,46.4713,3.468467,0.1525801,0.40904826,209.0809,05/10.0/2022,2000,g 11.5,6.0
# From MPEC 2022-GA9
106P/Schuster,e,19.5359,48.8805,353.6871,3.763831,0.1349767,0.59383442,35.6611,05/10.0/2022,2000,g 14.0,4.8
# From MPEC 2015-M77
107P/Wilson-Harrington,e,2.7993,266.7790,95.4394,2.624875,0.2317614,0.63173353,335.2793,05/10.0/2022,2000,g  9.0,4.0
# From MPEC 2022-GA9
108P/Ciffreo,e,11.4361,50.2868,354.4393,3.739184,0.1363135,0.55596172,32.9708,05/10.0/2022,2000,g  8.0,12.0
# From  105, 420
109P/Swift-Tuttle,e,113.9181,139.0930,152.9816,26.17307,0.0073607,0.96266279,79.0882,05/10.0/2022,2000,g  4.0,6.0
# From MPEC 2022-HC2
110P/Hartley,e,11.7056,287.5337,167.4481,3.603165,0.1441046,0.31846373,29.3519,05/10.0/2022,2000,g  1.0,12.0
# From MPC 75718
111P/Helin-Roman-Crockett,e,4.2262,89.7619,0.9975,4.149370,0.1166087,0.10648372,38.2845,05/10.0/2022,2000,g  5.0,8.0
# From MPEC 2021-S45
112P/Urata-Niijima,e,24.2063,31.8320,21.4689,3.524980,0.1489255,0.59022304,122.3845,05/10.0/2022,2000,g 14.0,6.0
# From MPEC 2022-D36
